[
  {
    "OBJECT_NAME": "STARLINK-33807",
    "OBJECT_ID": "25071AB",
    "EPOCH": "2025-11-11T07:20:19.190688",
    "MEAN_MOTION": 15.30209862,
    "ECCENTRICITY": 0.0001608,
    "INCLINATION": 53.1617,
    "RA_OF_ASC_NODE": 331.9796,
    "ARG_OF_PERICENTER": 48.8007,
    "MEAN_ANOMALY": 311.3132,
    "EPHEMERIS_TYPE": 0,
    "CLASSIFICATION_TYPE": "U",
    "NORAD_CAT_ID": 63518,
    "ELEMENT_SET_NO": 999,
    "REV_AT_EPOCH": 3461,
    "BSTAR": 0.001485,
    "MEAN_MOTION_DOT": 0.00043896,
    "MEAN_MOTION_DDOT": 0.0,
    "TLE_LINE1": "1 63518U 25071AB  25315.30577767  .00043896  00000+0  14850-2 0  9995",
    "TLE_LINE2": "2 63518  53.1617 331.9796 0001608  48.8007 311.3132 15.30209862 34612",
    "COMMENT": "Grouped by shell and plane from TLE"
  },
  {
    "OBJECT_NAME": "STARLINK-33787",
    "OBJECT_ID": "25071AC",
    "EPOCH": "2025-11-11T07:27:54.706176",
    "MEAN_MOTION": 15.30223964,
    "ECCENTRICITY": 0.0001558,
    "INCLINATION": 53.1615,
    "RA_OF_ASC_NODE": 332.0133,
    "ARG_OF_PERICENTER": 80.1926,
    "MEAN_ANOMALY": 279.9251,
    "EPHEMERIS_TYPE": 0,
    "CLASSIFICATION_TYPE": "U",
    "NORAD_CAT_ID": 63519,
    "ELEMENT_SET_NO": 999,
    "REV_AT_EPOCH": 3424,
    "BSTAR": 0.00087149,
    "MEAN_MOTION_DOT": 0.0002556,
    "MEAN_MOTION_DDOT": 0.0,
    "TLE_LINE1": "1 63519U 25071AC  25315.31104984  .00025560  00000+0  87149-3 0  9994",
    "TLE_LINE2": "2 63519  53.1615 332.0133 0001558  80.1926 279.9251 15.30223964 34240",
    "COMMENT": "Grouped by shell and plane from TLE"
  },
  {
    "OBJECT_NAME": "STARLINK-33886",
    "OBJECT_ID": "25085T",
    "EPOCH": "2025-11-11T03:08:04.697952",
    "MEAN_MOTION": 15.27571617,
    "ECCENTRICITY": 0.0001586,
    "INCLINATION": 43.0042,
    "RA_OF_ASC_NODE": 339.9733,
    "ARG_OF_PERICENTER": 253.8024,
    "MEAN_ANOMALY": 106.2653,
    "EPHEMERIS_TYPE": 0,
    "CLASSIFICATION_TYPE": "U",
    "NORAD_CAT_ID": 63681,
    "ELEMENT_SET_NO": 999,
    "REV_AT_EPOCH": 3074,
    "BSTAR": 0.00047915999999999996,
    "MEAN_MOTION_DOT": 0.00012943,
    "MEAN_MOTION_DDOT": 0.0,
    "TLE_LINE1": "1 63681U 25085T   25315.13060993  .00012943  00000+0  47916-3 0  9999",
    "TLE_LINE2": "2 63681  43.0042 339.9733 0001586 253.8024 106.2653 15.27571617 30749",
    "COMMENT": "Grouped by shell and plane from TLE"
  }
]